GLOBALSTAR M075         
1 37192U 10054E   24223.94066934 -.00000097  00000+0  40342-4 0  9999
2 37192  51.9954  46.1695 0000750  80.1109  71.0606 12.62262548637193
GLOBALSTAR M073         
1 37193U 10054F   24224.02481464 -.00000079  00000+0  13580-3 0  9992
2 37193  52.0077 319.4990 0000679 101.1381  71.8391 12.62267728638715
GLOBALSTAR M083         
1 37739U 11033A   24223.87896175 -.00000094  00000+0  53220-4 0  9990
2 37739  51.9847 269.0975 0000203 152.7425  18.5726 12.62263424608021
GLOBALSTAR M088         
1 37740U 11033B   24224.32626265 -.00000080  00000+0  13067-3 0  9993
2 37740  51.9719 173.4833 0000308  11.2885 154.0655 12.62265943603555
GLOBALSTAR M091         
1 37741U 11033C   24223.83769812 -.00000082  00000+0  12051-3 0  9999
2 37741  51.9992 137.9749 0000364  13.4124  29.0411 12.62265387603993
GLOBALSTAR M085         
1 37742U 11033D   24224.40689519 -.00000087  00000+0  93044-4 0  9996
2 37742  51.9865  87.5529 0000549  53.1889 118.4469 12.62264384605065
GLOBALSTAR M081         
1 37743U 11033E   24224.11488222 -.00000094  00000+0  56190-4 0  9992
2 37743  51.9957  91.0384 0000739  39.1167 124.4750 12.62267673605065
GLOBALSTAR M089         
1 37744U 11033F   24223.99690808 -.00000095  00000+0  49272-4 0  9997
2 37744  51.9938  45.6852 0001137  75.7146  89.9977 12.62266886605764
